STARLINK-4170           
1 53140U 22083J   26068.59739688 -.00000013  00000+0  17258-4 0  9996
2 53140  53.2177 174.5364 0001234  95.0222 265.0911 15.08832033201202
LEMUR-2-STELLA          
1 60533U 24149BT  26068.72657350  .00013685  00000+0  85776-3 0  9992
2 60533  97.6764 150.9122 0001299  95.1117 265.0260 15.09464064 85488
